0 FENGYUN 1C DEB
1 31232U 99025BLN 13282.75790233  .00002235  00000-0  12785-2 0  3999
2 31232 099.0457 271.3030 0050565 154.5318 139.7296 14.09927664335063
0 FENGYUN 1C DEB
1 31232U 99025BLN 13284.19023403  .00002527  00000-0  14433-2 0  4006
2 31232 099.0370 272.7428 0049124 150.3820 210.0287 14.09938228335267
0 FENGYUN 1C DEB
1 31232U 99025BLN 13289.15770997  .00002830  00000-0  16117-2 0  4013
2 31232 099.0361 277.7294 0049371 136.3666 224.2463 14.09970510335969
0 FENGYUN 1C DEB
1 31232U 99025BLN 13291.21560666  .00002870  00000-0  16334-2 0  4029
2 31232 099.0385 279.8049 0050089 129.9644 230.6034 14.09983220336258
0 FENGYUN 1C DEB
1 31232U 99025BLN 13292.20907491  .00002903  00000-0  16512-2 0  4036
2 31232 099.0393 280.8086 0050833 127.2377 233.3618 14.09989833336390
